#dP2025  2  8  6  0  0.00000000      96 __u+U IGS20 EXT  IAC
## 2352 540000.00000000   900.00000000 60714 0.2500000000000
+   52   G01G03G04G05G06G07G08G09G10G11G12G13G14G15G16G17G18
+        G19G20G21G22G23G24G25G26G27G28G29G30G31G32R01R02R03
+        R04R05R07R08R09R11R12R14R15R16R17R18R19R20R21R22R24
+        R26  0  0  0  0  0  0  0  0  0  0  0  0  0  0  0  0
+          0  0  0  0  0  0  0  0  0  0  0  0  0  0  0  0  0
++         7  7  8  8  7  8  8  7  7  6  7  8  7  8  6  8  9
++         7  8  8  7  6  8  7  6  7  7  7  7  7  7  8  7  7
++         7  8  9  8  7  7  8  8  8  8 10  8  8  8  7  6  9
++         9  0  0  0  0  0  0  0  0  0  0  0  0  0  0  0  0
++         0  0  0  0  0  0  0  0  0  0  0  0  0  0  0  0  0
%c M  cc GPS ccc cccc cccc cccc cccc ccccc ccccc ccccc ccccc
%c cc cc ccc ccc cccc cccc cccc cccc ccccc ccccc ccccc ccccc
%f  0.0000000  0.000000000  0.00000000000  0.000000000000000
%f  0.0000000  0.000000000  0.00000000000  0.000000000000000
%i    0    0    0    0      0      0      0      0         0
%i    0    0    0    0      0      0      0      0         0
/* IAC                                ULTRA-RAPID PREDICTION
/* S/V CLOCKS ARE ALIGNED TO GNSS TIME                      
/* G:C1WC2W R:C1PC2P E:C1XC5X C:C2IC6I J:C1CC2S             
/* PCV:IGS20_2350 OL/AL:FES2004  NONE     YN ORB:CoN CLK:CoN
*  2025 02 08  9 30  0.00000000
PG01 -16158.716499  -2780.583505  20903.254399    107.249158
PG03 -19579.944517   7324.823910  16145.470395    660.186199
PG04 -25719.806416     68.858117  -6920.966527    524.119759
PG05  13726.523824   6455.020013 -21981.858601   -201.359741
PG06   5327.374271  25295.595021   5868.262024   -173.690572
PG07 -10244.044793  13092.192620 -20070.842703    -13.635827
PG08 -25776.153891  -6003.269313  -4420.832646    476.421981
PG09 -20621.084273   7935.126683 -14879.781740    559.396349
PG10   7759.730816 -22330.365731  12001.264566   -310.032493
PG11  11984.441270  23058.402680  -5592.706986   -748.373403
PG12  19771.360961  -4050.058527  16955.016061   -569.040199
PG13  20208.146075  13795.621134 -10866.545517    695.866924
PG14 -10876.858880  22615.894967   8359.547308    594.809468
PG15  26177.628441   2951.187468  -4452.902686    261.049948
PG16  -9200.213132 -12547.600047 -21853.259813    -58.096614
PG17  -6764.444298  14075.596916  21907.073900    435.863499
PG18   8695.548172 -15239.633579 -19836.847278   -654.190169
PG19   5295.940173  16024.783363  20477.017664    595.625258
PG20   5639.145921  17729.867723 -18911.962401    366.457699
PG21 -18541.139026 -12177.606696  15755.902938    101.838769
PG22  -5457.689174  21373.625144  15392.428158    -96.093481
PG23  16953.293859 -20167.106872  -2102.282416    419.571153
PG24  18284.300988   6886.973944  17692.676898   -454.577526
PG25  19340.277749 -15976.415769   7947.877249    495.366098
PG26  -1954.545800 -20217.547791 -17102.967130    -82.145500
PG27 -18817.277952 -12795.705083 -14370.062696    -31.836155
PG28  -4848.847555 -24933.514975   7733.191662   -554.795894
PG29  21279.655149  -5733.760911 -14961.959674   -539.673609
PG30  -1816.649989  22513.213029 -13600.616494   -220.941276
PG31  -9902.629253 -24414.013368  -1187.081184   -216.003169
PG32   -194.395365 -15371.108464  21908.904392   -525.919916
PR01  21199.031727  -9934.678385  10149.434231    114.016376
PR02   6628.184300 -11556.608987  21787.882887    -37.614590
PR03 -12625.975145  -7391.918059  20963.962021    116.443564
PR04 -23959.092678    498.602971   8796.889067    276.277234
PR05 -22798.525936   8111.220100  -8090.914163    145.014944
PR07  12798.934952   7275.662485 -20769.652814    100.392541
PR08  24038.116636   -906.589725  -8365.560843     -6.195320
PR09  -5668.257113  24647.096036   2980.683133    236.771540
PR11  10602.258865   2799.687960  23036.005194     -7.412790
PR12  12728.512539 -16876.951527  14283.895999     50.548468
PR14  -3489.045159 -17848.835642 -17890.689277     27.724010
PR15 -11280.944091   -924.047536 -22847.059076     71.397764
PR16 -12607.077598  16823.041974 -14418.962697     33.137259
PR17 -15986.722123 -19732.310672  -2178.067953    164.341566
PR18 -18144.408262 -11700.756168  13646.371293    185.986400
PR19 -12476.543807    374.438295  22248.064553    -39.908163
PR20   3142.110751  17250.793592  18516.896033   -125.597027
PR21  15206.658929  20176.160311   3598.164536   -175.015085
PR22  17870.843049  10904.011664 -14535.108478    -59.680757
PR24  -4146.624119 -17571.233962 -17996.107986    -91.600206
PR26  23319.103331     27.019396 -10338.496134   -130.978168
*  2025 02 08  9 45  0.00000000
PG01 -16832.414611  -5018.380240  19932.497570    107.271741
PG03 -18485.970351   5668.743153  17988.287476    660.191620
PG04 -26312.757412   -242.262975  -4154.759641    524.124817
PG05  12349.246651   8517.086425 -22091.288514   -201.360646
PG06   4856.039022  24601.452119   8626.689501   -173.713246
PG07 -11316.049609  10870.630260 -20827.959145    -13.636093
PG08 -25122.448494  -6195.231525  -7125.351184    476.428159
PG09 -22158.068226   7605.331462 -12670.708610    559.408940
PG10   8619.032531 -23188.039880   9439.366158   -310.046239
PG11  11938.485470  23592.252695  -2783.206246   -748.371499
PG12  18532.013765  -2363.604533  18572.846280   -569.042054
PG13  18873.602167  13609.012964 -13265.441158    695.867875
PG14 -11610.920093  23065.682409   5680.446935    594.815600
PG15  25586.824678   3268.453339  -7151.267716    261.053944
PG16  -7562.739176 -14305.332189 -21348.296254    -58.088308
PG17  -9107.324368  13625.719053  21343.156333    435.846695
PG18   9667.464471 -13109.944289 -20899.031258   -654.188267
PG19   2935.286111  15552.203110  21255.735818    595.629178
PG20   4589.424045  19541.525666 -17365.227810    366.457448
PG21 -19208.028447 -13623.962679  13679.319637    101.838460
PG22  -6628.724320  22433.057466  13247.219593    -96.094896
PG23  16886.536388 -19710.295252  -4976.893801    419.577738
PG24  19098.052498   8729.210191  16019.874124   -454.573213
PG25  18930.850983 -14903.095584  10515.398878    495.365474
PG26   -784.239944 -21662.882427 -15276.486122    -82.160354
PG27 -17116.897545 -12770.372759 -16381.474076    -31.835605
PG28  -4199.518081 -24094.621433  10332.612569   -554.803694
PG29  22790.906122  -5265.780123 -12747.483255   -539.670371
PG30  -2738.595197  21045.645051 -15645.285098   -220.933401
PG31  -9602.100648 -24476.828978   1677.095912   -216.002364
PG32   2249.168207 -15109.671001  21959.018937   -525.913001
PR01  22192.157438 -10352.156332   7171.755179    114.017533
PR02   9147.327819 -12202.305874  20475.969753    -37.614134
PR03 -10037.633270  -7945.357091  22126.148519    116.444200
PR04 -22693.503590    383.418655  11691.742316    276.278868
PR05 -23549.438902   8463.529141  -4994.354668    145.015420
PR07  10206.527547   7830.928660 -21970.425348    100.393177
PR08  22812.907175   -768.799884 -11282.255894     -6.195247
PR09  -5629.235302  24832.467881   -203.109224    236.773562
PR11   9831.645765   5524.828595  22883.407457     -7.415915
PR12  12103.448288 -15073.943062  16651.354176     50.548885
PR14  -3005.975039 -19866.619632 -15722.394953     27.724104
PR15 -10486.671268  -3638.363999 -22954.680468     71.397418
PR16 -11967.945400  15001.507208 -16782.670473     33.137448
PR17 -15798.937066 -19267.225159  -5367.157639    164.344475
PR18 -19292.457030 -12699.926370  10903.213295    185.988151
PR19 -14276.362012  -1608.636605  21080.311676    -39.909407
PR20   1676.315803  15349.308674  20300.366825   -125.597601
PR21  14917.240759  19574.750889   6750.420929   -175.018085
PR22  19037.707788  12058.100688 -11908.880013    -59.682178
PR24  -2602.928265 -15813.239561 -19822.401390    -91.601680
PR26  21874.650895    228.540703 -13112.306171   -130.977820
EOF
